CCSDS_OMM_VERS,COMMENT,CREATION_DATE,ORIGINATOR,OBJECT_NAME,OBJECT_ID,CENTER_NAME,REF_FRAME,TIME_SYSTEM,MEAN_ELEMENT_THEORY,EPOCH,MEAN_MOTION,ECCENTRICITY,INCLINATION,RA_OF_ASC_NODE,ARG_OF_PERICENTER,MEAN_ANOMALY,EPHEMERIS_TYPE,CLASSIFICATION_TYPE,NORAD_CAT_ID,ELEMENT_SET_NO,REV_AT_EPOCH,BSTAR,MEAN_MOTION_DOT,MEAN_MOTION_DDOT,SEMIMAJOR_AXIS,PERIOD,APOAPSIS,PERIAPSIS,OBJECT_TYPE,RCS_SIZE,COUNTRY_CODE,LAUNCH_DATE,SITE,DECAY_DATE,FILE,GP_ID,TLE_LINE0,TLE_LINE1,TLE_LINE2
2.0,GENERATED VIA SPACE-TRACK.ORG API,2022-08-20T03:27:48,18 SPCS,STARLINK-1125,2020-001AN,EARTH,TEME,UTC,SGP4,2022-08-19T17:43:21.874368,15.11536682,0.000198,53.0526,30.2832,86.6157,273.506,0,U,44950,999,14453,0.0009388,0.00015836,0.0,6909.65,95.267,532.883,530.147,PAYLOAD,LARGE,US,2020-01-07,AFETR,,3540705,210543749,0 STARLINK-1125,1 44950U 20001AN  22231.73844762  .00015836  00000-0  93880-3 0  9990,2 44950  53.0526  30.2832 0001980  86.6157 273.5060 15.11536682144532
2.0,GENERATED VIA SPACE-TRACK.ORG API,2022-08-20T03:27:48,18 SPCS,STARLINK-2491,2021-027BJ,EARTH,TEME,UTC,SGP4,2022-08-19T17:37:09.759936,15.06400731,0.0001646,53.0532,238.3632,69.7625,290.3541,0,U,48148,999,7677,0.00012783,1.623e-05,0.0,6925.346,95.592,548.351,546.071,PAYLOAD,LARGE,US,2021-04-07,AFETR,,3540705,210546332,0 STARLINK-2491,1 48148U 21027BJ  22231.73414074  .00001623  00000-0  12783-3 0  9993,2 48148  53.0532 238.3632 0001646  69.7625 290.3541 15.06400731 76772
2.0,GENERATED VIA SPACE-TRACK.ORG API,2022-08-20T03:27:48,18 SPCS,STARLINK-3324,2022-001M,EARTH,TEME,UTC,SGP4,2022-08-19T17:34:21.299808,15.08841652,0.0001943,53.2183,235.8773,47.519,312.5966,0,U,50814,999,3446,3.1153e-05,2.08e-06,0.0,6917.875,95.437,541.084,538.396,PAYLOAD,LARGE,US,2022-01-06,AFETR,,3540705,210547815,0 STARLINK-3324,1 50814U 22001M   22231.73219097  .00000208  00000-0  31153-4 0  9998,2 50814  53.2183 235.8773 0001943  47.5190 312.5966 15.08841652 34469
2.0,GENERATED VIA SPACE-TRACK.ORG API,2022-08-20T03:27:48,18 SPCS,STARLINK-1219,2020-012AJ,EARTH,TEME,UTC,SGP4,2022-08-19T17:32:30.179040,15.06395607,0.0001454,53.0535,93.3947,80.8516,279.2637,0,U,45210,999,13937,-8.5843e-05,-1.56e-05,0.0,6925.362,95.592,548.234,546.22,PAYLOAD,LARGE,US,2020-02-17,AFETR,,3540705,210544024,0 STARLINK-1219,1 45210U 20012AJ  22231.73090485 -.00001560  00000-0 -85843-4 0  9999,2 45210  53.0535  93.3947 0001454  80.8516 279.2637 15.06395607139373
2.0,GENERATED VIA SPACE-TRACK.ORG API,2022-08-20T03:27:48,18 SPCS,STARLINK-1088,2020-001BE,EARTH,TEME,UTC,SGP4,2022-08-19T17:32:29.980320,15.0639815,0.000134,53.0547,13.397,91.7625,268.3517,0,U,44966,999,14477,1.1537e-05,-1.1e-06,0.0,6925.354,95.592,548.147,546.291,PAYLOAD,LARGE,US,2020-01-07,AFETR,,3540705,210544249,0 STARLINK-1088,1 44966U 20001BE  22231.73090255 -.00000110  00000-0  11537-4 0  9997,2 44966  53.0547  13.3970 0001340  91.7625 268.3517 15.06398150144779
2.0,GENERATED VIA SPACE-TRACK.ORG API,2022-08-20T03:27:48,18 SPCS,STARLINK-2468,2021-027AM,EARTH,TEME,UTC,SGP4,2022-08-19T17:31:50.807424,15.06393837,0.0001527,53.0536,238.397,67.9264,292.1887,0,U,48127,999,7678,7.1775e-06,-1.75e-06,0.0,6925.367,95.593,548.29,546.175,PAYLOAD,LARGE,US,2021-04-07,AFETR,,3540705,210546079,0 STARLINK-2468,1 48127U 21027AM  22231.73044916 -.00000175  00000-0  71775-5 0  9994,2 48127  53.0536 238.3970 0001527  67.9264 292.1887 15.06393837 76787
2.0,GENERATED VIA SPACE-TRACK.ORG API,2022-08-20T03:27:48,18 SPCS,CAPELLA-6 (WHITNEY),2021-041BE,EARTH,TEME,UTC,SGP4,2022-08-19T17:31:25.696992,14.97931875,0.0011943,53.0319,231.1976,233.9189,126.069,0,U,48605,999,6908,0.00010268,9.61e-06,0.0,6951.424,96.133,581.591,564.987,PAYLOAD,LARGE,US,2021-05-15,AFETR,,3540705,210546636,0 CAPELLA-6 (WHITNEY),1 48605U 21041BE  22231.73015853  .00000961  00000-0  10268-3 0  9999,2 48605  53.0319 231.1976 0011943 233.9189 126.0690 14.97931875 69089
2.0,GENERATED VIA SPACE-TRACK.ORG API,2022-08-20T03:27:48,18 SPCS,LANDSAT 4,1982-072A,EARTH,TEME,UTC,SGP4,2022-08-19T17:31:22.360224,15.2020304,0.0010822,98.2506,220.3152,233.8536,126.1696,0,U,13367,999,59684,0.00015634,3.309e-05,0.0,6883.365,94.724,512.679,497.78,PAYLOAD,LARGE,US,1982-07-16,AFWTR,,3540705,210528682,0 LANDSAT 4,1 13367U 82072A   22231.73011991  .00003309  00000-0  15634-3 0  9997,2 13367  98.2506 220.3152 0010822 233.8536 126.1696 15.20203040596840
2.0,GENERATED VIA SPACE-TRACK.ORG API,2022-08-20T03:27:48,18 SPCS,STARLINK-1321,2020-025AU,EARTH,TEME,UTC,SGP4,2022-08-19T17:31:10.881120,15.06396116,0.0001824,53.0556,143.398,73.0941,287.0248,0,U,45573,999,12957,2.8339e-05,1.4e-06,0.0,6925.36,95.592,548.489,545.962,PAYLOAD,LARGE,US,2020-04-22,AFETR,,3540705,210544563,0 STARLINK-1321,1 45573U 20025AU  22231.72998705  .00000140  00000-0  28339-4 0  9994,2 45573  53.0556 143.3980 0001824  73.0941 287.0248 15.06396116129570
2.0,GENERATED VIA SPACE-TRACK.ORG API,2022-08-20T03:27:48,18 SPCS,HARBINGER,2019-026E,EARTH,TEME,UTC,SGP4,2022-08-19T17:29:45.500640,15.26719127,0.0005472,40.015,21.463,132.233,227.8938,0,U,44229,999,18318,0.00036631,9.662e-05,0.0,6863.765,94.32,489.386,481.874,PAYLOAD,LARGE,US,2019-05-05,RLLC,,3540705,210544936,0 HARBINGER,1 44229U 19026E   22231.72899885  .00009662  00000-0  36631-3 0  9990,2 44229  40.0150  21.4630 0005472 132.2330 227.8938 15.26719127183182
2.0,GENERATED VIA SPACE-TRACK.ORG API,2022-08-20T03:27:48,18 SPCS,STARLINK-1893,2020-074AZ,EARTH,TEME,UTC,SGP4,2022-08-19T17:26:32.373312,15.06390825,0.0001217,53.0548,358.4147,91.4976,268.6152,0,U,46786,999,10146,0.00013213,1.687e-05,0.0,6925.377,95.593,548.084,546.399,PAYLOAD,LARGE,US,2020-10-24,AFETR,,3540705,210545932,0 STARLINK-1893,1 46786U 20074AZ  22231.72676358  .00001687  00000-0  13213-3 0  9993,2 46786  53.0548 358.4147 0001217  91.4976 268.6152 15.06390825101468
2.0,GENERATED VIA SPACE-TRACK.ORG API,2022-08-20T03:27:48,18 SPCS,STARLINK-1959,2021-009N,EARTH,TEME,UTC,SGP4,2022-08-19T17:26:29.450400,15.06408293,0.0001647,53.0524,68.3812,90.0925,270.0253,0,U,47560,999,8544,0.00013918,1.793e-05,0.0,6925.323,95.592,548.329,546.048,PAYLOAD,LARGE,US,2021-02-04,AFETR,,3540705,210545767,0 STARLINK-1959,1 47560U 21009N   22231.72672975  .00001793  00000-0  13918-3 0  9994,2 47560  53.0524  68.3812 0001647  90.0925 270.0253 15.06408293 85442
2.0,GENERATED VIA SPACE-TRACK.ORG API,2022-08-20T03:27:48,18 SPCS,STARLINK-1222,2020-012BC,EARTH,TEME,UTC,SGP4,2022-08-19T17:24:33.314112,15.06391314,0.0001133,53.055,73.4065,79.6628,280.4488,0,U,45228,999,13965,-0.00011722,-2.026e-05,0.0,6925.375,95.593,548.025,546.456,PAYLOAD,LARGE,US,2020-02-17,AFETR,,3540705,210544275,0 STARLINK-1222,1 45228U 20012BC  22231.72538558 -.00002026  00000-0 -11722-3 0  9997,2 45228  53.0550  73.4065 0001133  79.6628 280.4488 15.06391314139653
2.0,GENERATED VIA SPACE-TRACK.ORG API,2022-08-20T03:27:48,18 SPCS,STARLINK-1094,2020-001AD,EARTH,TEME,UTC,SGP4,2022-08-19T17:24:33.077376,15.06405732,0.0001224,53.0576,33.4193,73.0366,287.0757,0,U,44941,999,14449,-7.5861e-05,-1.411e-05,0.0,6925.331,95.592,548.044,546.348,PAYLOAD,LARGE,US,2020-01-07,AFETR,,3540705,210543748,0 STARLINK-1094,1 44941U 20001AD  22231.72538284 -.00001411  00000-0 -75861-4 0  9994,2 44941  53.0576  33.4193 0001224  73.0366 287.0757 15.06405732144498
2.0,GENERATED VIA SPACE-TRACK.ORG API,2022-08-20T03:27:48,18 SPCS,STARLINK-1278,2020-019BA,EARTH,TEME,UTC,SGP4,2022-08-19T17:24:32.963328,15.06399489,0.000148,53.0547,233.4038,77.0829,283.0326,0,U,45408,999,13381,2.1557e-05,4e-07,0.0,6925.35,95.592,548.24,546.19,PAYLOAD,LARGE,US,2020-03-18,AFETR,,3540705,210543796,0 STARLINK-1278,1 45408U 20019BA  22231.72538152  .00000040  00000-0  21557-4 0  9994,2 45408  53.0547 233.4038 0001480  77.0829 283.0326 15.06399489133810
2.0,GENERATED VIA SPACE-TRACK.ORG API,2022-08-20T03:27:48,18 SPCS,SJ-7,2005-024A,EARTH,TEME,UTC,SGP4,2022-08-19T17:24:30.792960,14.97568706,0.0033931,97.717,229.1728,111.0588,249.4268,0,U,28737,999,93746,0.00015348,1.753e-05,0.0,6952.548,96.156,598.004,550.822,PAYLOAD,LARGE,PRC,2005-07-05,JSC,,3540705,210534322,0 SJ-7,1 28737U 05024A   22231.72535640  .00001753  00000-0  15348-3 0  9990,2 28737  97.7170 229.1728 0033931 111.0588 249.4268 14.97568706937461
2.0,GENERATED VIA SPACE-TRACK.ORG API,2022-08-20T03:27:48,18 SPCS,STARLINK-1199,2020-012Z,EARTH,TEME,UTC,SGP4,2022-08-19T17:21:53.305632,15.06398398,0.0001238,53.056,93.4057,74.0847,286.0279,0,U,45201,999,13948,9.4255e-05,1.123e-05,0.0,6925.353,95.592,548.076,546.361,PAYLOAD,LARGE,US,2020-02-17,AFETR,,3540705,210544023,0 STARLINK-1199,1 45201U 20012Z   22231.72353363  .00001123  00000-0  94255-4 0  9995,2 45201  53.0560  93.4057 0001238  74.0847 286.0279 15.06398398139486
2.0,GENERATED VIA SPACE-TRACK.ORG API,2022-08-20T03:27:48,18 SPCS,STARLINK-1987,2021-009AM,EARTH,TEME,UTC,SGP4,2022-08-19T17:19:54.391584,15.0638112,0.00014,53.0542,88.4203,86.9138,273.2011,0,U,47583,999,8516,-0.00027251,-4.336e-05,0.0,6925.406,95.593,548.241,546.302,PAYLOAD,LARGE,US,2021-02-04,AFETR,,3540705,210546019,0 STARLINK-1987,1 47583U 21009AM  22231.72215731 -.00004336  00000-0 -27251-3 0  9995,2 47583  53.0542  88.4203 0001400  86.9138 273.2011 15.06381120 85166
2.0,GENERATED VIA SPACE-TRACK.ORG API,2022-08-20T03:27:48,18 SPCS,CARTOSAT 2AT,2007-001B,EARTH,TEME,UTC,SGP4,2022-08-19T17:18:51.621120,15.30851334,0.0146653,97.8692,340.9405,194.859,164.832,0,U,29710,999,84591,0.00045486,0.00018903,0.0,6851.408,94.065,573.751,372.795,PAYLOAD,LARGE,IND,2007-01-10,SRI,,3540705,210533373,0 CARTOSAT 2AT,1 29710U 07001B   22231.72143080  .00018903  00000-0  45486-3 0  9993,2 29710  97.8692 340.9405 0146653 194.8590 164.8320 15.30851334845912
2.0,GENERATED VIA SPACE-TRACK.ORG API,2022-08-20T03:27:48,18 SPCS,STARLINK-1093,2020-001BJ,EARTH,TEME,UTC,SGP4,2022-08-19T17:16:36.547680,15.06413707,0.0001278,53.0547,13.4233,110.0859,250.0267,0,U,44970,999,14476,0.00056527,8.151e-05,0.0,6925.307,95.591,548.057,546.286,PAYLOAD,LARGE,US,2020-01-07,AFETR,,3540705,210543751,0 STARLINK-1093,1 44970U 20001BJ  22231.71986745  .00008151  00000-0  56527-3 0  9997,2 44970  53.0547  13.4233 0001278 110.0859 250.0267 15.06413707144766
